[{"OBJECT_NAME":"STARLINK-32486","OBJECT_ID":"2024-202K","EPOCH":"2026-03-09T12:22:43.199328","MEAN_MOTION":15.27650668,"ECCENTRICITY":0.00019522,"INCLINATION":43.0127,"RA_OF_ASC_NODE":238.7574,"ARG_OF_PERICENTER":268.3052,"MEAN_ANOMALY":91.7576,"EPHEMERIS_TYPE":0,"CLASSIFICATION_TYPE":"U","NORAD_CAT_ID":61854,"ELEMENT_SET_NO":999,"REV_AT_EPOCH":7531,"BSTAR":-0.0006499397,"MEAN_MOTION_DOT":-0.00018143,"MEAN_MOTION_DDOT":0},{"OBJECT_NAME":"OBJECT H","OBJECT_ID":"2024-205H","EPOCH":"2026-03-09T23:10:36.271776","MEAN_MOTION":15.29110994,"ECCENTRICITY":0.00105089,"INCLINATION":97.4168,"RA_OF_ASC_NODE":147.1265,"ARG_OF_PERICENTER":38.7838,"MEAN_ANOMALY":321.4154,"EPHEMERIS_TYPE":0,"CLASSIFICATION_TYPE":"U","NORAD_CAT_ID":61901,"ELEMENT_SET_NO":999,"REV_AT_EPOCH":7354,"BSTAR":0.00059497566,"MEAN_MOTION_DOT":0.00016783,"MEAN_MOTION_DDOT":0}]
